{
  "type": "FeatureCollection",
  "features": [
    {
      "type": "Feature",
      "properties": {
        "norad_id": 26766,
        "name": "INTELSAT 10 (IS-10)",
        "group": "intelsat",
        "lat": -8.409584697744792,
        "lon": -41.62642378275907,
        "alt_km": 36098.99597347569,
        "timestamp": "2025-12-05T04:52:14.989069+00:00",
        "meta_object_name": "INTELSAT 10 (IS-10)",
        "meta_object_id": "2001-019A",
        "meta_epoch": "2025-12-04T12:50:24.704160",
        "meta_mean_motion": 0.99078419,
        "meta_eccentricity": 0.0007804,
        "meta_inclination": 8.6091,
        "meta_ra_of_asc_node": 61.2371,
        "meta_arg_of_pericenter": 219.0537,
        "meta_mean_anomaly": 159.9231,
        "meta_ephemeris_type": 0,
        "meta_classification_type": "U",
        "meta_norad_cat_id": 26766,
        "meta_element_set_no": 999,
        "meta_rev_at_epoch": 4365,
        "meta_bstar": 0,
        "meta_mean_motion_dot": -1.87e-06,
        "meta_mean_motion_ddot": 0,
        "tle_line1": "1 26766U 01019A   25338.53500815 -.00000187  00000+0  00000+0 0  9991",
        "tle_line2": "2 26766   8.6091  61.2371 0007804 219.0537 159.9231  0.99078419 43654"
      },
      "geometry": {
        "type": "Point",
        "coordinates": [
          -41.62642378275907,
          -8.409584697744792
        ]
      }
    },
    {
      "type": "Feature",
      "properties": {
        "norad_id": 26900,
        "name": "INTELSAT 902 (IS-902)",
        "group": "intelsat",
        "lat": 2.2188795282892935,
        "lon": 97.0496120351429,
        "alt_km": 35802.756308907745,
        "timestamp": "2025-12-05T04:52:14.989091+00:00",
        "meta_object_name": "INTELSAT 902 (IS-902)",
        "meta_object_id": "2001-039A",
        "meta_epoch": "2025-12-01T16:59:59.311968",
        "meta_mean_motion": 1.00270327,
        "meta_eccentricity": 0.00043097,
        "meta_inclination": 5.6187,
        "meta_ra_of_asc_node": 74.2002,
        "meta_arg_of_pericenter": 175.119,
        "meta_mean_anomaly": 26.3816,
        "meta_ephemeris_type": 0,
        "meta_classification_type": "U",
        "meta_norad_cat_id": 26900,
        "meta_element_set_no": 999,
        "meta_rev_at_epoch": 8871,
        "meta_bstar": 0,
        "meta_mean_motion_dot": -2.63e-06,
        "meta_mean_motion_ddot": 0,
        "tle_line1": "1 26900U 01039A   25335.70832537 -.00000263  00000+0  00000+0 0  9993",
        "tle_line2": "2 26900   5.6187  74.2002 0004309 175.1190  26.3816  1.00270327 88713"
      },
      "geometry": {
        "type": "Point",
        "coordinates": [
          97.0496120351429,
          2.2188795282892935
        ]
      }
    },
    {
      "type": "Feature",
      "properties": {
        "norad_id": 27380,
        "name": "INTELSAT 904 (IS-904)",
        "group": "intelsat",
        "lat": 4.506959879082892,
        "lon": 115.61898001050086,
        "alt_km": 35793.00869445624,
        "timestamp": "2025-12-05T04:52:14.989104+00:00",
        "meta_object_name": "INTELSAT 904 (IS-904)",
        "meta_object_id": "2002-007A",
        "meta_epoch": "2025-12-04T11:51:49.343904",
        "meta_mean_motion": 1.0026902,
        "meta_eccentricity": 0.0001665,
        "meta_inclination": 6.4331,
        "meta_ra_of_asc_node": 71.5255,
        "meta_arg_of_pericenter": 205.7795,
        "meta_mean_anomaly": 302.7127,
        "meta_ephemeris_type": 0,
        "meta_classification_type": "U",
        "meta_norad_cat_id": 27380,
        "meta_element_set_no": 999,
        "meta_rev_at_epoch": 4981,
        "meta_bstar": 0,
        "meta_mean_motion_dot": -2.15e-06,
        "meta_mean_motion_ddot": 0,
        "tle_line1": "1 27380U 02007A   25338.49432111 -.00000215  00000+0  00000+0 0  9992",
        "tle_line2": "2 27380   6.4331  71.5255 0001665 205.7795 302.7127  1.00269020 49811"
      },
      "geometry": {
        "type": "Point",
        "coordinates": [
          115.61898001050086,
          4.506959879082892
        ]
      }
    },
    {
      "type": "Feature",
      "properties": {
        "norad_id": 27426,
        "name": "DIRECTV 5 (TEMPO 1)",
        "group": "intelsat",
        "lat": -2.8212236810400797,
        "lon": 37.307385400007654,
        "alt_km": 35796.677911535575,
        "timestamp": "2025-12-05T04:52:14.989116+00:00",
        "meta_object_name": "DIRECTV 5 (TEMPO 1)",
        "meta_object_id": "2002-023A",
        "meta_epoch": "2025-12-04T09:56:32.681760",
        "meta_mean_motion": 1.00271251,
        "meta_eccentricity": 0.0003839,
        "meta_inclination": 4.3795,
        "meta_ra_of_asc_node": 77.7499,
        "meta_arg_of_pericenter": 191.2769,
        "meta_mean_anomaly": 203.4731,
        "meta_ephemeris_type": 0,
        "meta_classification_type": "U",
        "meta_norad_cat_id": 27426,
        "meta_element_set_no": 999,
        "meta_rev_at_epoch": 8617,
        "meta_bstar": 0,
        "meta_mean_motion_dot": -4.4e-07,
        "meta_mean_motion_ddot": 0,
        "tle_line1": "1 27426U 02023A   25338.41426715 -.00000044  00000+0  00000+0 0  9996",
        "tle_line2": "2 27426   4.3795  77.7499 0003839 191.2769 203.4731  1.00271251 86173"
      },
      "geometry": {
        "type": "Point",
        "coordinates": [
          37.307385400007654,
          -2.8212236810400797
        ]
      }
    },
    {
      "type": "Feature",
      "properties": {
        "norad_id": 27438,
        "name": "INTELSAT 905 (IS-905)",
        "group": "intelsat",
        "lat": -5.514328333745851,
        "lon": 10.32199052731382,
        "alt_km": 35790.50187948522,
        "timestamp": "2025-12-05T04:52:14.989127+00:00",
        "meta_object_name": "INTELSAT 905 (IS-905)",
        "meta_object_id": "2002-027A",
        "meta_epoch": "2025-12-03T09:40:44.149728",
        "meta_mean_motion": 1.00273288,
        "meta_eccentricity": 0.00031296,
        "meta_inclination": 6.2606,
        "meta_ra_of_asc_node": 72.1621,
        "meta_arg_of_pericenter": 189.1417,
        "meta_mean_anomaly": 179.1858,
        "meta_ephemeris_type": 0,
        "meta_classification_type": "U",
        "meta_norad_cat_id": 27438,
        "meta_element_set_no": 999,
        "meta_rev_at_epoch": 4940,
        "meta_bstar": 0,
        "meta_mean_motion_dot": 1.09e-06,
        "meta_mean_motion_ddot": 0,
        "tle_line1": "1 27438U 02027A   25337.40328877  .00000109  00000+0  00000+0 0  9992",
        "tle_line2": "2 27438   6.2606  72.1621 0003129 189.1417 179.1858  1.00273288 49408"
      },
      "geometry": {
        "type": "Point",
        "coordinates": [
          10.32199052731382,
          -5.514328333745851
        ]
      }
    },
    {
      "type": "Feature",
      "properties": {
        "norad_id": 27445,
        "name": "GALAXY 3C (G-3C)",
        "group": "intelsat",
        "lat": -1.5027348092340327,
        "lon": 52.4777472163271,
        "alt_km": 35790.047329732384,
        "timestamp": "2025-12-05T04:52:14.989139+00:00",
        "meta_object_name": "GALAXY 3C (G-3C)",
        "meta_object_id": "2002-030A",
        "meta_epoch": "2025-12-04T13:16:29.706240",
        "meta_mean_motion": 1.00270508,
        "meta_eccentricity": 0.0001286,
        "meta_inclination": 3.2425,
        "meta_ra_of_asc_node": 80.5894,
        "meta_arg_of_pericenter": 100.4367,
        "meta_mean_anomaly": 356.8628,
        "meta_ephemeris_type": 0,
        "meta_classification_type": "U",
        "meta_norad_cat_id": 27445,
        "meta_element_set_no": 999,
        "meta_rev_at_epoch": 4454,
        "meta_bstar": 0,
        "meta_mean_motion_dot": -1.39e-06,
        "meta_mean_motion_ddot": 0,
        "tle_line1": "1 27445U 02030A   25338.55312160 -.00000139  00000+0  00000+0 0  9993",
        "tle_line2": "2 27445   3.2425  80.5894 0001286 100.4367 356.8628  1.00270508 44540"
      },
      "geometry": {
        "type": "Point",
        "coordinates": [
          52.4777472163271,
          -1.5027348092340327
        ]
      }
    },
    {
      "type": "Feature",
      "properties": {
        "norad_id": 27513,
        "name": "INTELSAT 906 (IS-906)",
        "group": "intelsat",
        "lat": 3.6584560586413137,
        "lon": -148.46765422096612,
        "alt_km": 35770.88632711239,
        "timestamp": "2025-12-05T04:52:14.989150+00:00",
        "meta_object_name": "INTELSAT 906 (IS-906)",
        "meta_object_id": "2002-041A",
        "meta_epoch": "2025-12-04T05:28:17.650848",
        "meta_mean_motion": 1.002733,
        "meta_eccentricity": 0.0006118,
        "meta_inclination": 5.3074,
        "meta_ra_of_asc_node": 75.3323,
        "meta_arg_of_pericenter": 192.8955,
        "meta_mean_anomaly": 311.2929,
        "meta_ephemeris_type": 0,
        "meta_classification_type": "U",
        "meta_norad_cat_id": 27513,
        "meta_element_set_no": 999,
        "meta_rev_at_epoch": 8507,
        "meta_bstar": 0,
        "meta_mean_motion_dot": 2.5e-07,
        "meta_mean_motion_ddot": 0,
        "tle_line1": "1 27513U 02041A   25338.22798207  .00000025  00000+0  00000+0 0  9998",
        "tle_line2": "2 27513   5.3074  75.3323 0006118 192.8955 311.2929  1.00273300 85070"
      },
      "geometry": {
        "type": "Point",
        "coordinates": [
          -148.46765422096612,
          3.6584560586413137
        ]
      }
    }
  ]
}